STARLINK-30614          
1 58098U 23161B   26068.95800877  .00003457  00000+0  12880-3 0  9999
2 58098  53.1587 164.2210 0000894  96.7070 263.4033 15.30191937134465
JINJUSAT-1B             
1 63210U 25052A   26068.66363707  .00019955  00000+0  68430-3 0  9998
2 63210  97.4113 325.4613 0005550  82.1930 277.9941 15.30194857 54866
